start=new Date('2022-01-31T00:00:00.000Z').valueOf();
sats=[{"LAUNCH_DATE":"2020-02-17","CLASSIFICATION_TYPE":"U","MEAN_MOTION_DDOT":"0.0000000000000","PERIAPSIS":"546.157","MEAN_MOTION":"15.06397563","CENTER_NAME":"EARTH","OBJECT_TYPE":"PAYLOAD","REF_FRAME":"TEME","OBJECT_ID":"2020-012K","MEAN_ANOMALY":"301.7155","RCS_SIZE":"LARGE","TLE_LINE1":"1 45187U 20012K   22030.87485287  .00002854  00000-0  21046-3 0  9991","PERIOD":"95.592","OBJECT_NAME":"STARLINK-1225","FILE":"3287903","RA_OF_ASC_NODE":"295.0537","INCLINATION":"53.0542","TIME_SYSTEM":"UTC","EPHEMERIS_TYPE":"0","APOAPSIS":"548.285","ARG_OF_PERICENTER":"58.3984","DECAY_DATE":null,"SITE":"AFETR","GP_ID":"194980150","MEAN_MOTION_DOT":"0.00002854","TLE_LINE2":"2 45187  53.0542 295.0537 0001537  58.3984 301.7155 15.06397563108927","REV_AT_EPOCH":"10892","COUNTRY_CODE":"US","SEMIMAJOR_AXIS":"6925.356","NORAD_CAT_ID":"45187","MEAN_ELEMENT_THEORY":"SGP4","BSTAR":"0.00021046000000","ECCENTRICITY":"0.00015370","ELEMENT_SET_NO":"999","EPOCH":"2022-01-30T20:59:47.287968"},{"REF_FRAME":"TEME","CENTER_NAME":"EARTH","OBJECT_TYPE":"PAYLOAD","MEAN_MOTION":"15.06389428","PERIAPSIS":"546.240","OBJECT_NAME":"STARLINK-1228","FILE":"3287903","PERIOD":"95.593","TLE_LINE1":"1 45188U 20012L   22030.90436930  .00001144  00000-0  95682-4 0  9996","OBJECT_ID":"2020-012L","MEAN_ANOMALY":"287.0953","RCS_SIZE":"LARGE","LAUNCH_DATE":"2020-02-17","MEAN_MOTION_DDOT":"0.0000000000000","CLASSIFICATION_TYPE":"U","TLE_LINE2":"2 45188  53.0544 254.9373 0001453  73.0196 287.0953 15.06389428109449","REV_AT_EPOCH":"10944","COUNTRY_CODE":"US","EPOCH":"2022-01-30T21:42:17.507520","NORAD_CAT_ID":"45188","SEMIMAJOR_AXIS":"6925.381","MEAN_ELEMENT_THEORY":"SGP4","ELEMENT_SET_NO":"999","BSTAR":"0.00009568200000","ECCENTRICITY":"0.00014530","DECAY_DATE":null,"TIME_SYSTEM":"UTC","APOAPSIS":"548.252","EPHEMERIS_TYPE":"0","ARG_OF_PERICENTER":"73.0196","INCLINATION":"53.0544","RA_OF_ASC_NODE":"254.9373","MEAN_MOTION_DOT":"0.00001144","GP_ID":"194980400","SITE":"AFETR"},{"PERIAPSIS":"545.792","MEAN_MOTION":"15.06405698","REF_FRAME":"TEME","OBJECT_TYPE":"PAYLOAD","CENTER_NAME":"EARTH","RCS_SIZE":"LARGE","MEAN_ANOMALY":"301.1114","OBJECT_ID":"2020-012M","FILE":"3287903","OBJECT_NAME":"STARLINK-1230","TLE_LINE1":"1 45189U 20012M   22030.81219790  .00003578  00000-0  25897-3 0  9993","PERIOD":"95.592","LAUNCH_DATE":"2020-02-17","CLASSIFICATION_TYPE":"U","MEAN_MOTION_DDOT":"0.0000000000000","COUNTRY_CODE":"US","TLE_LINE2":"2 45189  53.0545 295.3449 0002028  59.0073 301.1114 15.06405698106140","REV_AT_EPOCH":"10614","ELEMENT_SET_NO":"999","BSTAR":"0.00025897000000","ECCENTRICITY":"0.00020280","NORAD_CAT_ID":"45189","SEMIMAJOR_AXIS":"6925.331","MEAN_ELEMENT_THEORY":"SGP4","EPOCH":"2022-01-30T19:29:33.898560","INCLINATION":"53.0545","RA_OF_ASC_NODE":"295.3449","DECAY_DATE":null,"APOAPSIS":"548.601","ARG_OF_PERICENTER":"59.0073","EPHEMERIS_TYPE":"0","TIME_SYSTEM":"UTC","GP_ID":"194981152","SITE":"AFETR","MEAN_MOTION_DOT":"0.00003578"},{"MEAN_MOTION_DDOT":"0.0000000000000","CLASSIFICATION_TYPE":"U","LAUNCH_DATE":"2020-02-17","PERIOD":"95.592","TLE_LINE1":"1 45190U 20012N   22030.89697788  .00000415  00000-0  46775-4 0  9996","OBJECT_NAME":"STARLINK-1234","FILE":"3287903","MEAN_ANOMALY":"299.6685","OBJECT_ID":"2020-012N","RCS_SIZE":"LARGE","CENTER_NAME":"EARTH","OBJECT_TYPE":"PAYLOAD","REF_FRAME":"TEME","MEAN_MOTION":"15.06399444","PERIAPSIS":"545.897","MEAN_MOTION_DOT":"0.00000415","SITE":"AFETR","GP_ID":"194981902","TIME_SYSTEM":"UTC","APOAPSIS":"548.534","EPHEMERIS_TYPE":"0","ARG_OF_PERICENTER":"60.4494","DECAY_DATE":null,"INCLINATION":"53.0539","RA_OF_ASC_NODE":"254.9662","EPOCH":"2022-01-30T21:31:38.888832","NORAD_CAT_ID":"45190","SEMIMAJOR_AXIS":"6925.350","MEAN_ELEMENT_THEORY":"SGP4","BSTAR":"0.00004677500000","ECCENTRICITY":"0.00019040","ELEMENT_SET_NO":"999","TLE_LINE2":"2 45190  53.0539 254.9662 0001904  60.4494 299.6685 15.06399444109393","REV_AT_EPOCH":"10939","COUNTRY_CODE":"US"},{"LAUNCH_DATE":"2020-02-17","CLASSIFICATION_TYPE":"U","MEAN_MOTION_DDOT":"0.0000000000000","MEAN_MOTION":"15.06408513","PERIAPSIS":"545.908","CENTER_NAME":"EARTH","OBJECT_TYPE":"PAYLOAD","REF_FRAME":"TEME","OBJECT_ID":"2020-012P","MEAN_ANOMALY":"296.6382","RCS_SIZE":"LARGE","PERIOD":"95.592","TLE_LINE1":"1 45191U 20012P   22030.88592427  .00004745  00000-0  33718-3 0  9992","OBJECT_NAME":"STARLINK-1236","FILE":"3287903","RA_OF_ASC_NODE":"295.0078","INCLINATION":"53.0531","TIME_SYSTEM":"UTC","APOAPSIS":"548.467","EPHEMERIS_TYPE":"0","ARG_OF_PERICENTER":"63.4796","DECAY_DATE":null,"SITE":"AFETR","GP_ID":"194980650","MEAN_MOTION_DOT":"0.00004745","TLE_LINE2":"2 45191  53.0531 295.0078 0001848  63.4796 296.6382 15.06408513106147","REV_AT_EPOCH":"10614","COUNTRY_CODE":"US","NORAD_CAT_ID":"45191","SEMIMAJOR_AXIS":"6925.322","MEAN_ELEMENT_THEORY":"SGP4","ELEMENT_SET_NO":"999","BSTAR":"0.00033718000000","ECCENTRICITY":"0.00018480","EPOCH":"2022-01-30T21:15:43.856928"},{"MEAN_ANOMALY":"299.7296","OBJECT_ID":"2020-012Q","RCS_SIZE":"LARGE","OBJECT_NAME":"STARLINK-1237","FILE":"3287903","TLE_LINE1":"1 45192U 20012Q   22030.92646385  .00004122  00000-0  29543-3 0  9991","PERIOD":"95.592","MEAN_MOTION":"15.06401364","PERIAPSIS":"545.885","REF_FRAME":"TEME","CENTER_NAME":"EARTH","OBJECT_TYPE":"PAYLOAD","CLASSIFICATION_TYPE":"U","MEAN_MOTION_DDOT":"0.0000000000000","LAUNCH_DATE":"2020-02-17","SEMIMAJOR_AXIS":"6925.344","NORAD_CAT_ID":"45192","MEAN_ELEMENT_THEORY":"SGP4","ECCENTRICITY":"0.00019120","BSTAR":"0.00029543000000","ELEMENT_SET_NO":"999","EPOCH":"2022-01-30T22:14:06.476640","TLE_LINE2":"2 45192  53.0531 294.8265 0001912  60.3883 299.7296 15.06401364108943","REV_AT_EPOCH":"10894","COUNTRY_CODE":"US","GP_ID":"194980900","SITE":"AFETR","MEAN_MOTION_DOT":"0.00004122","INCLINATION":"53.0531","RA_OF_ASC_NODE":"294.8265","DECAY_DATE":null,"TIME_SYSTEM":"UTC","APOAPSIS":"548.534","ARG_OF_PERICENTER":"60.3883","EPHEMERIS_TYPE":"0"},{"LAUNCH_DATE":"2020-02-17","MEAN_MOTION_DDOT":"0.0000000000000","CLASSIFICATION_TYPE":"U","REF_FRAME":"TEME","CENTER_NAME":"EARTH","OBJECT_TYPE":"PAYLOAD","PERIAPSIS":"545.901","MEAN_MOTION":"15.06407563","OBJECT_NAME":"STARLINK-1239","FILE":"3287903","PERIOD":"95.592","TLE_LINE1":"1 45193U 20012R   22030.91540234  .00003022  00000-0  22167-3 0  9990","MEAN_ANOMALY":"296.4427","OBJECT_ID":"2020-012R","RCS_SIZE":"LARGE","DECAY_DATE":null,"TIME_SYSTEM":"UTC","APOAPSIS":"548.480","ARG_OF_PERICENTER":"63.6753","EPHEMERIS_TYPE":"0","INCLINATION":"53.0544","RA_OF_ASC_NODE":"294.8774","MEAN_MOTION_DOT":"0.00003022","GP_ID":"194981652","SITE":"AFETR","TLE_LINE2":"2 45193  53.0544 294.8774 0001862  63.6753 296.4427 15.06407563108889","REV_AT_EPOCH":"10888","COUNTRY_CODE":"US","EPOCH":"2022-01-30T21:58:10.762176","NORAD_CAT_ID":"45193","SEMIMAJOR_AXIS":"6925.325","MEAN_ELEMENT_THEORY":"SGP4","BSTAR":"0.00022167000000","ECCENTRICITY":"0.00018620","ELEMENT_SET_NO":"999"},{"EPHEMERIS_TYPE":"0","APOAPSIS":"548.568","ARG_OF_PERICENTER":"63.5706","TIME_SYSTEM":"UTC","DECAY_DATE":null,"INCLINATION":"53.0555","RA_OF_ASC_NODE":"294.8677","MEAN_MOTION_DOT":"0.00002196","SITE":"AFETR","GP_ID":"194981403","COUNTRY_CODE":"US","TLE_LINE2":"2 45194  53.0555 294.8677 0001979  63.5706 296.5486 15.06405307108835","REV_AT_EPOCH":"10883","EPOCH":"2022-01-30T22:03:28.847232","BSTAR":"0.00016625000000","ELEMENT_SET_NO":"999","ECCENTRICITY":"0.00019790","SEMIMAJOR_AXIS":"6925.332","NORAD_CAT_ID":"45194","MEAN_ELEMENT_THEORY":"SGP4","LAUNCH_DATE":"2020-02-17","MEAN_MOTION_DDOT":"0.0000000000000","CLASSIFICATION_TYPE":"U","OBJECT_TYPE":"PAYLOAD","CENTER_NAME":"EARTH","REF_FRAME":"TEME","MEAN_MOTION":"15.06405307","PERIAPSIS":"545.827","PERIOD":"95.592","TLE_LINE1":"1 45194U 20012S   22030.91908388  .00002196  00000-0  16625-3 0  9992","FILE":"3287903","OBJECT_NAME":"STARLINK-1240","RCS_SIZE":"LARGE","MEAN_ANOMALY":"296.5486","OBJECT_ID":"2020-012S"},{"MEAN_MOTION_DDOT":"0.0000000000000","CLASSIFICATION_TYPE":"U","LAUNCH_DATE":"2020-02-17","FILE":"3287903","OBJECT_NAME":"STARLINK-1241","TLE_LINE1":"1 45195U 20012T   22030.91172391  .00000465  00000-0  50114-4 0  9999","PERIOD":"95.592","RCS_SIZE":"LARGE","OBJECT_ID":"2020-012T","MEAN_ANOMALY":"304.9908","REF_FRAME":"TEME","OBJECT_TYPE":"PAYLOAD","CENTER_NAME":"EARTH","PERIAPSIS":"545.931","MEAN_MOTION":"15.06400489","MEAN_MOTION_DOT":"0.00000465","GP_ID":"194980151","SITE":"AFETR","DECAY_DATE":null,"APOAPSIS":"548.493","EPHEMERIS_TYPE":"0","ARG_OF_PERICENTER":"55.1255","TIME_SYSTEM":"UTC","RA_OF_ASC_NODE":"294.8918","INCLINATION":"53.0543","EPOCH":"2022-01-30T21:52:52.945824","ECCENTRICITY":"0.00018500","BSTAR":"0.00005011400000","ELEMENT_SET_NO":"999","SEMIMAJOR_AXIS":"6925.347","NORAD_CAT_ID":"45195","MEAN_ELEMENT_THEORY":"SGP4","COUNTRY_CODE":"US","TLE_LINE2":"2 45195  53.0543 294.8918 0001850  55.1255 304.9908 15.06400489108935","REV_AT_EPOCH":"10893"},{"CLASSIFICATION_TYPE":"U","MEAN_MOTION_DDOT":"0.0000000000000","LAUNCH_DATE":"2020-02-17","MEAN_ANOMALY":"299.2323","OBJECT_ID":"2020-012U","RCS_SIZE":"LARGE","PERIOD":"95.591","TLE_LINE1":"1 45196U 20012U   22030.90065662  .00003011  00000-0  22088-3 0  9999","OBJECT_NAME":"STARLINK-1244","FILE":"3287903","MEAN_MOTION":"15.06410406","PERIAPSIS":"545.752","CENTER_NAME":"EARTH","OBJECT_TYPE":"PAYLOAD","REF_FRAME":"TEME","SITE":"AFETR","GP_ID":"194980401","MEAN_MOTION_DOT":"0.00003011","RA_OF_ASC_NODE":"294.9333","INCLINATION":"53.0531","TIME_SYSTEM":"UTC","EPHEMERIS_TYPE":"0","APOAPSIS":"548.612","ARG_OF_PERICENTER":"60.8873","DECAY_DATE":null,"NORAD_CAT_ID":"45196","SEMIMAJOR_AXIS":"6925.317","MEAN_ELEMENT_THEORY":"SGP4","BSTAR":"0.00022088000000","ELEMENT_SET_NO":"999","ECCENTRICITY":"0.00020650","EPOCH":"2022-01-30T21:36:56.731968","REV_AT_EPOCH":"10898","TLE_LINE2":"2 45196  53.0531 294.9333 0002065  60.8873 299.2323 15.06410406108985","COUNTRY_CODE":"US"}];
